$$SOE
2461302.500000000, A.D. 2026-Sep-19 00:00:00.0000, -3.111825691688567E+08, 1.214162946612126E+08, 7.218749297190006E+07,
2461309.500000000, A.D. 2026-Sep-26 00:00:00.0000, -3.138688660079749E+08, 1.130415620815589E+08, 7.079143517326248E+07,
2461316.500000000, A.D. 2026-Oct-03 00:00:00.0000, -3.161710308390495E+08, 1.045285806768141E+08, 6.930871496178895E+07,
2461323.500000000, A.D. 2026-Oct-10 00:00:00.0000, -3.180831827125642E+08, 9.588675578652483E+07, 6.774047738049820E+07,
2461330.500000000, A.D. 2026-Oct-17 00:00:00.0000, -3.195991963563752E+08, 8.712561150995116E+07, 6.608785679932092E+07,
2461337.500000000, A.D. 2026-Oct-24 00:00:00.0000, -3.207126841731922E+08, 7.825483163852920E+07, 6.435198300346727E+07,
2461344.500000000, A.D. 2026-Oct-31 00:00:00.0000, -3.214169778452749E+08, 6.928430291439138E+07, 6.253398774852899E+07,
2461351.500000000, A.D. 2026-Nov-07 00:00:00.0000, -3.217051091560237E+08, 6.022416118349266E+07, 6.063501185573377E+07,
2461358.500000000, A.D. 2026-Nov-14 00:00:00.0000, -3.215697897959099E+08, 5.108484188388272E+07, 5.865621301541948E+07,
2461365.500000000, A.D. 2026-Nov-21 00:00:00.0000, -3.210033919582618E+08, 4.187713617321967E+07, 5.659877465345400E+07,
2461372.500000000, A.D. 2026-Nov-28 00:00:00.0000, -3.199979307527997E+08, 3.261225039391479E+07, 5.446391586296643E+07,
2461379.500000000, A.D. 2026-Dec-05 00:00:00.0000, -3.185450448863216E+08, 2.330186903114555E+07, 5.225290220013537E+07,
2461386.500000000, A.D. 2026-Dec-12 00:00:00.0000, -3.166359755529216E+08, 1.395822520455887E+07, 4.996705779762738E+07,
2461393.500000000, A.D. 2026-Dec-19 00:00:00.0000, -3.142615455925065E+08, 4.594179761171544E+06, 4.760777922258836E+07,
2461400.500000000, A.D. 2026-Dec-26 00:00:00.0000, -3.114121393265811E+08, -4.776690672149692E+06, 4.517655132519183E+07,
2461407.500000000, A.D. 2027-Jan-02 00:00:00.0000, -3.080776831730195E+08, -1.413999543971594E+07, 4.267496539978918E+07,
2461414.500000000, A.D. 2027-Jan-09 00:00:00.0000, -3.042476274403201E+08, -2.348041973156663E+07, 4.010474008267526E+07,
2461421.500000000, A.D. 2027-Jan-16 00:00:00.0000, -2.999109299720266E+08, -3.278160064034100E+07, 3.746774550345262E+07,
2461428.500000000, A.D. 2027-Jan-23 00:00:00.0000, -2.950560425504242E+08, -4.202598718223606E+07, 3.476603130791823E+07,
2461435.500000000, A.D. 2027-Jan-30 00:00:00.0000, -2.896709011492860E+08, -5.119468168422946E+07, 3.200185928520981E+07,
2461442.500000000, A.D. 2027-Feb-06 00:00:00.0000, -2.837429213025491E+08, -6.026725909682087E+07, 2.917774149776204E+07,
2461449.500000000, A.D. 2027-Feb-13 00:00:00.0000, -2.772590012810667E+08, -6.922155939207453E+07, 2.629648515742713E+07,
2461456.500000000, A.D. 2027-Feb-20 00:00:00.0000, -2.702055384059442E+08, -7.803344963398212E+07, 2.336124574192735E+07,
2461463.500000000, A.D. 2027-Feb-27 00:00:00.0000, -2.625684610771305E+08, -8.667655406146547E+07, 2.037558960433391E+07,
2461470.500000000, A.D. 2027-Mar-06 00:00:00.0000, -2.543332788185982E+08, -9.512194460120007E+07, 1.734356796676034E+07,
2461477.500000000, A.D. 2027-Mar-13 00:00:00.0000, -2.454851590047797E+08, -1.033377832138548E+08, 1.426980506477938E+07,
2461484.500000000, A.D. 2027-Mar-20 00:00:00.0000, -2.360090407618115E+08, -1.112889094424830E+08, 1.115960346476726E+07,
2461491.500000000, A.D. 2027-Mar-27 00:00:00.0000, -2.258897982971439E+08, -1.189363653648323E+08, 8.019070128308192E+06,
2461498.500000000, A.D. 2027-Apr-03 00:00:00.0000, -2.151124700598271E+08, -1.262368488959876E+08, 4.855267620128706E+06,
2461505.500000000, A.D. 2027-Apr-10 00:00:00.0000, -2.036625758036990E+08, -1.331420858945991E+08, 1.676395790180691E+06,
2461512.500000000, A.D. 2027-Apr-17 00:00:00.0000, -1.915265510186436E+08, -1.395981118460416E+08, -1.507989701227665E+06,
2461519.500000000, A.D. 2027-Apr-24 00:00:00.0000, -1.786923378873391E+08, -1.455444555321663E+08, -4.686714541899942E+06,
2461526.500000000, A.D. 2027-May-01 00:00:00.0000, -1.651501845199389E+08, -1.509132208764338E+08, -7.846670078129068E+06,
2461533.500000000, A.D. 2027-May-08 00:00:00.0000, -1.508937208159465E+08, -1.556280701401395E+08, -1.097243540447301E+07,
2461540.500000000, A.D. 2027-May-15 00:00:00.0000, -1.359214020983896E+08, -1.596031254211493E+08, -1.404582764068280E+07,
2461547.500000000, A.D. 2027-May-22 00:00:00.0000, -1.202384371849601E+08, -1.627418329810438E+08, -1.704537257264210E+07,
2461554.500000000, A.D. 2027-May-29 00:00:00.0000, -1.038593413732671E+08, -1.649358736612393E+08, -1.994569248949409E+07,
2461561.500000000, A.D. 2027-Jun-05 00:00:00.0000, -8.681128558995619E+07, -1.660642621487775E+08, -2.271681676637920E+07,
2461568.500000000, A.D. 2027-Jun-12 00:00:00.0000, -6.913843499247344E+07, -1.659928798543510E+08, -2.532343882243679E+07,
2461575.500000000, A.D. 2027-Jun-19 00:00:00.0000, -5.090746009717513E+07, -1.645748338919997E+08, -2.772417594291050E+07,
2461582.500000000, A.D. 2027-Jun-26 00:00:00.0000, -3.221433135595629E+07, -1.616522357435951E+08, -2.987094259557309E+07,
2461589.500000000, A.D. 2027-Jul-03 00:00:00.0000, -1.319231462138873E+07, -1.570602435759737E+08, -3.170863053647256E+07,
2461596.500000000, A.D. 2027-Jul-10 00:00:00.0000, 5.979315615336778E+06, -1.506344653037146E+08, -3.317540271367810E+07,
2461603.500000000, A.D. 2027-Jul-17 00:00:00.0000, 2.506702966681239E+07, -1.422229466797352E+08, -3.420403921082983E+07,
2461610.500000000, A.D. 2027-Jul-24 00:00:00.0000, 4.377748571232287E+07, -1.317037122485495E+08, -3.472487249313238E+07,
2461617.500000000, A.D. 2027-Jul-31 00:00:00.0000, 6.175809052149246E+07, -1.190077997013675E+08, -3.467080778776456E+07,
2461624.500000000, A.D. 2027-Aug-07 00:00:00.0000, 7.860788542600645E+07, -1.041455776411808E+08, -3.398457930160866E+07,
2461631.500000000, A.D. 2027-Aug-14 00:00:00.0000, 9.390222191837020E+07, -8.723100654075125E+07, -3.262761181231324E+07,
2461638.500000000, A.D. 2027-Aug-21 00:00:00.0000, 1.072312995769271E+08, -6.849565301704887E+07, -3.058874279758491E+07,
2461645.500000000, A.D. 2027-Aug-28 00:00:00.0000, 1.182467240553693E+08, -4.828412262943935E+07, -2.789015219758099E+07,
2461652.500000000, A.D. 2027-Sep-04 00:00:00.0000, 1.267044662298985E+08, -2.702720246268445E+07, -2.458798131351729E+07,
2461659.500000000, A.D. 2027-Sep-11 00:00:00.0000, 1.324913050589744E+08, -5.197396044428168E+06, -2.076672657423058E+07,
2461666.500000000, A.D. 2027-Sep-18 00:00:00.0000, 1.356272535033747E+08, 1.674109380784636E+07, -1.652887740466840E+07,
2461673.500000000, A.D. 2027-Sep-25 00:00:00.0000, 1.362457476475203E+08, 3.837446728198319E+07, -1.198294896062542E+07,
2461680.500000000, A.D. 2027-Oct-02 00:00:00.0000, 1.345606679146034E+08, 5.936507286488094E+07, -7.233067072286686E+06,
2461687.500000000, A.D. 2027-Oct-09 00:00:00.0000, 1.308309369691962E+08, 7.945972733850862E+07, -2.371930393609032E+06,
2461694.500000000, A.D. 2027-Oct-16 00:00:00.0000, 1.253304316588281E+08, 9.848483165401295E+07, 2.522606989223234E+06,
2461701.500000000, A.D. 2027-Oct-23 00:00:00.0000, 1.183264970883778E+08, 1.163341650433275E+08, 7.388106364749774E+06,
2461708.500000000, A.D. 2027-Oct-30 00:00:00.0000, 1.100669372693793E+08, 1.329543046370347E+08, 1.217634840257420E+07,
2461715.500000000, A.D. 2027-Nov-06 00:00:00.0000, 1.007736821751795E+08, 1.483307714386671E+08, 1.685130229425460E+07,
2461722.500000000, A.D. 2027-Nov-13 00:00:00.0000, 9.064098483941773E+07, 1.624763488081773E+08, 2.138688867589048E+07,
2461729.500000000, A.D. 2027-Nov-20 00:00:00.0000, 7.983633007488833E+07, 1.754219364989847E+08, 2.576488430816063E+07,
2461736.500000000, A.D. 2027-Nov-27 00:00:00.0000, 6.850274866671543E+07, 1.872097464772922E+08, 2.997312029634381E+07,
2461743.500000000, A.D. 2027-Dec-04 00:00:00.0000, 5.676169603603666E+07, 1.978884292734318E+08, 3.400401007902416E+07,
2461750.500000000, A.D. 2027-Dec-11 00:00:00.0000, 4.471600553901191E+07, 2.075096892272352E+08, 3.785338527227646E+07,
2461757.500000000, A.D. 2027-Dec-18 00:00:00.0000, 3.245265990545325E+07, 2.161260008276128E+08, 4.151959447031672E+07,
2461764.500000000, A.D. 2027-Dec-25 00:00:00.0000, 2.004526670720658E+07, 2.237891161562977E+08, 4.500281562654917E+07,
2461771.500000000, A.D. 2028-Jan-01 00:00:00.0000, 7.556204932108871E+06, 2.305491285284361E+08, 4.830453661265586E+07,
$$EOE